{
    "links": {
        "self": "http://www.neowsapp.com/rest/v1/neo/3573072?api_key=iIulBulltgU6a56xZRHN4H3l9WmuAYTsLGpBGhQ2"
    },
    "id": "3573072",
    "neo_reference_id": "3573072",
    "name": "(2011 OE)",
    "designation": "2011 OE",
    "nasa_jpl_url": "http://ssd.jpl.nasa.gov/sbdb.cgi?sstr=3573072",
    "absolute_magnitude_h": 23.3,
    "estimated_diameter": {
        "kilometers": {
            "estimated_diameter_min": 0.058150704,
            "estimated_diameter_max": 0.130028927
        },
        "meters": {
            "estimated_diameter_min": 58.1507039646,
            "estimated_diameter_max": 130.0289270043
        },
        "miles": {
            "estimated_diameter_min": 0.0361331611,
            "estimated_diameter_max": 0.0807962044
        },
        "feet": {
            "estimated_diameter_min": 190.7831555951,
            "estimated_diameter_max": 426.6041048727
        }
    },
    "is_potentially_hazardous_asteroid": false,
    "close_approach_data": [
        {
            "close_approach_date": "2011-08-16",
            "close_approach_date_full": "2011-Aug-16 17:23",
            "epoch_date_close_approach": 1313515380000,
            "relative_velocity": {
                "kilometers_per_second": "4.8202629876",
                "kilometers_per_hour": "17352.9467553153",
                "miles_per_hour": "10782.4462769347"
            },
            "miss_distance": {
                "astronomical": "0.1283544504",
                "lunar": "49.9298812056",
                "kilometers": "19201552.384860648",
                "miles": "11931291.3906190224"
            },
            "orbiting_body": "Earth"
        }
    ],
    "orbital_data": {
        "orbit_id": "16",
        "orbit_determination_date": "2017-04-06 08:53:10",
        "first_observation_date": "2011-07-21",
        "last_observation_date": "2011-10-22",
        "data_arc_in_days": 93,
        "observations_used": 62,
        "orbit_uncertainty": "6",
        "minimum_orbit_intersection": ".129965",
        "jupiter_tisserand_invariant": "3.425",
        "epoch_osculation": "2459000.5",
        "eccentricity": ".500506822996868",
        "semi_major_axis": "2.284519953524017",
        "inclination": "1.228140368447005",
        "ascending_node_longitude": "279.4708418810549",
        "orbital_period": "1261.22003281343",
        "perihelion_distance": "1.141102129512759",
        "perihelion_argument": "44.75044476974066",
        "aphelion_distance": "3.427937777535276",
        "perihelion_time": "2459573.762744398455",
        "mean_anomaly": "196.3690850017028",
        "mean_motion": ".285437901899592",
        "equinox": "J2000",
        "orbit_class": {
            "orbit_class_type": "AMO",
            "orbit_class_description": "Near-Earth asteroid orbits similar to that of 1221 Amor",
            "orbit_class_range": "1.017 AU < q (perihelion) < 1.3 AU"
        }
    },
    "is_sentry_object": false
}